{
  "type": "FeatureCollection",
  "name": "areas_interes_lagos",
  "crs": {"type": "name", "properties": {"name": "urn:ogc:def:crs:OGC:1.3:CRS84"}},
  "features": [
    {
      "type": "Feature",
      "properties": {"lago": "Atitlan", "fuente": "UVG"},
      "geometry": {
        "type": "Polygon",
        "coordinates": [[
          [-91.326256, 14.5948], [-91.07151, 14.5948],
          [-91.07151, 14.750979], [-91.326256, 14.750979],
          [-91.326256, 14.5948]
        ]]
      }
    },
    {
      "type": "Feature",
      "properties": {"lago": "Amatitlan", "fuente": "UVG"},
      "geometry": {
        "type": "Polygon",
        "coordinates": [[
          [-90.638065, 14.412347], [-90.512924, 14.412347],
          [-90.512924, 14.493799], [-90.638065, 14.493799],
          [-90.638065, 14.412347]
        ]]
      }
    }
  ]
}

